stk.v.12.0
    
    # WrittenBy    STK_v12.2.0
    
    BEGIN Ephemeris
        NumberOfEphemerisPoints		 1227
        ScenarioEpoch		 6 Aug 2021 23:59:42.000000
        InterpolationMethod		 Lagrange
        InterpolationSamplesM1		 7
        CentralBody		 Earth
        CoordinateSystem		 ICRF
    
        EphemerisTimePosVel	
4.783045544816722 915.6670280020725 -5535.71239600848 3032.832671566991 4.047062808924417e-05 2.1877634162011126e-05 5.586170579451162e-05
4.820606168301986 915.6670295294806 -5535.712395185405 3032.8326736768317 4.103712102248406e-05 2.173431664801285e-05 5.6813927231520825e-05
4.8590318320722234 915.6670311180379 -5535.712394350573 3032.8326758641347 4.138781753301074e-05 2.1580401004518474e-05 5.755532428683632e-05
4.889006386880727 915.6670323580163 -5535.712393702196 3032.8326775949845 4.1452190646832396e-05 2.1842964669456612e-05 5.811780987768878e-05
4.91898094168923 915.6670336054372 -5535.712393043433 3032.83267934589 4.1985821924888514e-05 2.2280422624997925e-05 5.868104165398453e-05
4.949900279356432 915.6670349099996 -5535.712392353174 3032.8326811586235 4.2225237916625606e-05 2.2485985863202583e-05 5.8525941928770306e-05
4.9860228850427575 915.6670364444636 -5535.712391541115 3032.83268327803 4.283943030366058e-05 2.2439632728314085e-05 5.896627295512789e-05
5.022201315819903 915.6670380087667 -5535.71239072229 3032.8326854115057 4.3683445924743815e-05 2.3139330045652256e-05 5.8803886396984e-05
5.056052066696322 915.6670394963476 -5535.7123899373055 3032.8326874162026 4.4507120603027205e-05 2.3388758026136256e-05 5.964319454986599e-05
5.088874680912359 915.6670409596691 -5535.712389164168 3032.8326893824737 4.4614065811707656e-05 2.3775894103870028e-05 5.9888211388509405e-05
5.124495219720821 915.6670425577125 -5535.712388321434 3032.832691532792 4.529293771893371e-05 2.3614582040615613e-05 6.094919463364455e-05
5.167113450580647 915.6670445045978 -5535.712387303092 3032.832694142813 4.57558375339046e-05 2.4213914054926773e-05 6.195091972166622e-05
5.210632443053446 915.6670465091523 -5535.712386243649 3032.8326968546266 4.613372498094804e-05 2.4403276445260763e-05 6.219211158310741e-05
5.253222744941725 915.6670484860944 -5535.712385200122 3032.8326995172115 4.6330510034305146e-05 2.4459909828326273e-05 6.293339795773164e-05
5.300880746364 915.6670506901158 -5535.712384020148 3032.832702534033 4.581968548365178e-05 2.50835721048997e-05 6.358576307057733e-05
5.3450186842388 915.6670527129023 -5535.712382914498 3032.832705350242 4.545326474743702e-05 2.5238505360039868e-05 6.39924685082588e-05
5.3903003870682005 915.6670547629503 -5535.7123817737365 3032.8327082617598 4.487355390323267e-05 2.529682336918344e-05 6.456692356053152e-05
5.433629411644373 915.6670567151335 -5535.71238068179 3032.832711072695 4.565610367497058e-05 2.5266016355452713e-05 6.519579738878987e-05
5.475783706695951 915.667058655865 -5535.712379608599 3032.8327138388463 4.6675086978768815e-05 2.5453089972629694e-05 6.59151503581316e-05
5.517347334337817 915.6670606132172 -5535.712378552479 3032.8327165820915 4.769162842887887e-05 2.5353657204796192e-05 6.642281408447359e-05
5.56191277037203 915.6670627410701 -5535.712377424588 3032.832719543394 4.778786482919854e-05 2.5330993455837404e-05 6.698475849696461e-05
5.600937695672318 915.6670646199228 -5535.712376432763 3032.832722167884 4.873878790804799e-05 2.550224364144245e-05 6.70933977509723e-05
5.639962620972606 915.6670665287872 -5535.71237544004 3032.8327247954685 4.915819968363067e-05 2.5409650266831677e-05 6.76546506235028e-05
5.699132062755655 915.6670694563251 -5535.7123739331555 3032.83272879374 4.981290394104897e-05 2.5877224665834195e-05 6.70867722791573e-05
5.75626907399016 915.667072298054 -5535.712372455945 3032.8327326559283 4.9729564050168515e-05 2.576609799490729e-05 6.750698444572585e-05
5.819624304841729 915.6670754437064 -5535.712370829345 3032.8327369461904 4.922381044244202e-05 2.554943525063765e-05 6.79904511469507e-05
5.881352036232484 915.667078503095 -5535.712369218923 3032.832741157733 5.026477979444892e-05 2.6820417903260205e-05 6.865818614791637e-05
5.946218564232106 915.667081774511 -5535.712367460766 3032.8327456590855 5.050944558574113e-05 2.712633239405821e-05 6.966893659960191e-05
6.015523098422594 915.6670852652562 -5535.7123655836 3032.832750526933 4.985845780909569e-05 2.7022060291309424e-05 7.039836061727428e-05
6.086109285619328 915.6670887998511 -5535.712363678646 3032.8327555166147 4.9758541839217896e-05 2.7463736942535578e-05 7.092338383228805e-05
6.154661573921729 915.6670922057197 -5535.71236178484 3032.832760423035 5.003461846970222e-05 2.7167085708231886e-05 7.251113008642465e-05
6.218177956033354 915.6670953856021 -5535.712360040799 3032.832765080735 4.963652255606936e-05 2.734117242954086e-05 7.43386803032652e-05
6.276564627035788 915.6670982962672 -5535.712358447737 3032.8327694204013 5.013517390057187e-05 2.7055392635075217e-05 7.483340999556912e-05
6.343499723494837 915.6671017000511 -5535.712356620964 3032.832774452439 5.1677056569876306e-05 2.7942845669577525e-05 7.572815875053044e-05
6.406475959809267 915.6671049625878 -5535.712354846592 3032.8327792524856 5.152103903247337e-05 2.8574624098780123e-05 7.620559449905089e-05
6.473855627446885 915.6671084286546 -5535.712352893525 3032.832784378607 5.164427308384393e-05 2.919908941466514e-05 7.62138606088953e-05
6.532212232026892 915.6671114566915 -5535.712351191381 3032.832788834439 5.195184880129421e-05 2.9143183160971984e-05 7.603834039233509e-05
6.5905688366068995 915.6671144812864 -5535.712349483419 3032.8327932647244 5.1773773570086196e-05 2.9213241672041977e-05 7.591640862970636e-05
6.654186961951711 915.6671178047771 -5535.712347620269 3032.832798093715 5.261790488267659e-05 2.9466924277053215e-05 7.68266126782128e-05
6.712507371618352 915.6671208731856 -5535.712345898849 3032.832802574582 5.215502960803122e-05 2.9185581488791067e-05 7.649425416860382e-05
6.7690037343545155 915.6671238544614 -5535.712344251145 3032.832806925729 5.3762747591894346e-05 2.8881633074982923e-05 7.757288399406586e-05
6.8202956577961755 915.6671266049827 -5535.712342768535 3032.8328109209724 5.3662093860243907e-05 2.8984136953272967e-05 7.868882996022024e-05
6.869787573942721 915.6671292848486 -5535.712341334173 3032.8328148245573 5.493147588855883e-05 2.9026019929336477e-05 7.931907228931195e-05
6.921913664079972 915.6671321571235 -5535.712339803162 3032.832818971009 5.518008492316677e-05 3.007259349587912e-05 7.962034206767056e-05
6.97017869015512 915.6671348263025 -5535.712338338188 3032.83282283817 5.53502024756378e-05 3.055313560742262e-05 8.072084405759035e-05
7.0251751755463365 915.6671378939274 -5535.71233664223 3032.832827294845 5.577968611094101e-05 3.079686503276437e-05 8.155523040273337e-05
7.091126947594503 915.6671416015716 -5535.712334582332 3032.8328326980513 5.635555466407926e-05 3.184153015200934e-05 8.21566143966772e-05
7.173115788301849 915.6671462819049 -5535.712331968289 3032.832839510461 5.742626032694118e-05 3.167185867143376e-05 8.409426361413628e-05
7.257761810595102 915.6671511614934 -5535.712329255415 3032.8328466810613 5.783859449993745e-05 3.22522691727948e-05 8.512134908435462e-05
7.319248800444565 915.6671547256016 -5535.712327257902 3032.8328519451784 5.836685105569385e-05 3.253728093127134e-05 8.58599729542179e-05
7.380735790294028 915.667158316678 -5535.712325263233 3032.8328572499145 5.8144699553595747e-05 3.202831166486014e-05 8.701049180671838e-05
7.446109393764438 915.6671621253931 -5535.712323164458 3032.832862948775 5.780828100536241e-05 3.2183059449367595e-05 8.830000728543094e-05
7.507966456266455 915.6671657272577 -5535.712321178709 3032.8328684317444 5.784484186152916e-05 3.206218840245845e-05 8.899991660363017e-05
7.566091025664826 915.6671691089684 -5535.712319293289 3032.8328736442722 5.89944810332793e-05 3.31169768769543e-05 8.991877101990153e-05
7.621208680694038 915.6671723594638 -5535.712317474409 3032.832878639019 5.897640791444517e-05 3.276309413588039e-05 9.174559977637075e-05
7.677705368742563 915.6671756927798 -5535.712315634276 3032.832883838542 5.9312286580173624e-05 3.221002298568122e-05 9.20103986558989e-05
7.73563801469369 915.6671791394884 -5535.7123137677 3032.832889165111 5.9665559982357805e-05 3.199572580748213e-05 9.17783852054158e-05
7.802820035929567 915.6671831513402 -5535.712311623576 3032.8328953869677 6.005867152063645e-05 3.211234297626098e-05 9.38323724018573e-05
7.868685713998553 915.6671871448009 -5535.71230949152 3032.832901587238 6.136187828258251e-05 3.275886238071512e-05 9.377534600544102e-05
7.935466115689741 915.667191242444 -5535.712307270627 3032.832907840292 6.16902354617399e-05 3.415226729087507e-05 9.322839960962649e-05
7.99454608825365 915.6671949156092 -5535.71230524737 3032.832913353667 6.283678452398437e-05 3.404665835443022e-05 9.303023464092364e-05
8.050866102740976 915.6671984825359 -5535.712303319867 3032.8329186025203 6.415108182351234e-05 3.395849416252935e-05 9.28295334745389e-05
8.104509886102907 915.6672019231565 -5535.712301481014 3032.832923589376 6.398235551175043e-05 3.4346470500609264e-05 9.248960144952879e-05
8.156815679342591 915.6672052814989 -5535.712299691189 3032.8329284198803 6.438067621682057e-05 3.392856330908176e-05 9.205027315161298e-05
8.205196444525463 915.6672084062261 -5535.712298049387 3032.832932894227 6.483053577382701e-05 3.3636253815360535e-05 9.310435774797485e-05
8.253710946835271 915.667211570471 -5535.71229641966 3032.832937428527 6.546226945810377e-05 3.3656940991553515e-05 9.336114224921488e-05
8.306115324288923 915.6672150283249 -5535.712294645668 3032.8329423345644 6.63524950441026e-05 3.394876883771783e-05 9.425524727179235e-05
8.381241440700533 915.6672199990453 -5535.712292056912 3032.8329494589443 6.573350882345112e-05 3.4997942515859816e-05 9.442822255761215e-05
8.449499430313159 915.6672244800607 -5535.712289663872 3032.832955959563 6.520055241675763e-05 3.543130242763244e-05 9.66741158570762e-05
